ONEWEB-0435             
1 51632U 22012L   24226.10424230 -.00000508  00000+0 -14906-2 0  9992
2 51632  87.8985 170.1695 0001637  72.5942 287.5364 13.10370621122441
ONEWEB-0436             
1 51633U 22012M   24225.73443102 -.00000014  00000+0 -70261-4 0  9990
2 51633  87.9183 139.9719 0001754  72.3527 287.7796 13.17647930124990
ONEWEB-0438             
1 51634U 22012N   24226.54578741  .00000172  00000+0  45778-3 0  9996
2 51634  87.8979 170.0828 0002199  76.2476 283.8896 13.10370108122540
ONEWEB-0439             
1 51635U 22012P   24225.93824495 -.00000247  00000+0 -74364-3 0  9997
2 51635  87.8983 170.1880 0001958  76.9395 283.1951 13.10369226121154
ONEWEB-0442             
1 51636U 22012Q   24226.48652254  .00000067  00000+0  14054-3 0  9999
2 51636  87.9187 139.8598 0002736  82.7848 277.3594 13.17650795126371
ONEWEB-0443             
1 51637U 22012R   24225.74573736  .00000027  00000+0  37454-4 0  9991
2 51637  87.9188 140.0152 0001849  62.6489 297.4830 13.17651015125039
ONEWEB-0444             
1 51638U 22012S   24225.92828660  .00000313  00000+0  85933-3 0  9993
2 51638  87.8977 170.2089 0001851  74.1904 285.9428 13.10371118121163
ONEWEB-0445             
1 51639U 22012T   24225.79713953 -.00000595  00000+0 -17399-2 0  9991
2 51639  87.8975 170.2045 0002240  85.6601 274.4782 13.10372543121156
